satname,norad_id,inclination_deg,eccentricity,mean_motion_rev_per_day,perigee_km,apogee_km,l1,l2
STARLINK-1142,45093,53.0233,0.0008858,15.84949195,310.5377140989858,322.39787595385496,1 45093U 20006BB  25342.91670139  .00499124  00000+0  19704-2 0  9992,2 45093  53.0233 209.5297 0008858 186.6100   2.6631 15.84949195  5945
STARLINK-1152,45096,53.0432,0.0004825,15.27667971,479.4752966602591,486.0960870579029,1 45096U 20006BE  25342.12278634  .00020990  00000+0  77636-3 0  9992,2 45096  53.0432 274.7206 0004825  20.5113 339.6079 15.27667971323547
STARLINK-1184,45098,53.0549,0.0001615,15.06414222,546.0495331469119,548.2864066521897,1 45098U 20006BG  25342.15543435  .00007331  00000+0  51031-3 0  9996,2 45098  53.0549 297.5320 0001615  76.9615 283.1555 15.06414222323227
STARLINK-1193,45100,53.0547,0.0001661,15.06400482,546.0597805279913,548.3603808281923,1 45100U 20006BJ  25342.61617411  .00006234  00000+0  43700-3 0  9992,2 45100  53.0547 295.4618 0001661  94.3218 265.7961 15.06400482323297
STARLINK-1143,45179,53.0523,0.0003836,15.45376146,427.6613596514835,432.8847718539282,1 45179U 20012B   25342.47043596  .00085675  00000+0  17546-2 0  9990,2 45179  53.0523  49.9533 0003836 170.6329 189.4749 15.45376146321748
STARLINK-1202,45183,53.0558,0.0001648,15.063996,546.0714862365558,548.3540815253236,1 45183U 20012F   25342.61250012  .00002201  00000+0  16664-3 0  9999,2 45183  53.0558  95.4829 0001648  79.0448 281.0727 15.06399600321111
STARLINK-1216,45185,53.0543,0.000123,15.06393893,546.3784549021066,548.0820952517761,1 45185U 20012H   25342.73781473 -.00001176  00000+0 -60100-4 0  9991,2 45185  53.0543  94.9154 0001230  88.2194 271.8936 15.06393893321071
STARLINK-1225,45187,53.0546,0.0001214,15.06391414,546.3971324070844,548.0786134262289,1 45187U 20012K   25342.75625292  .00005130  00000+0  36310-3 0  9998,2 45187  53.0546  94.8336 0001214  90.7847 269.3282 15.06391414321121
STARLINK-1230,45189,53.0549,0.0001125,15.06391875,546.4573554907411,548.0155645192417,1 45189U 20012M   25342.69358512  .00000135  00000+0  27971-4 0  9995,2 45189  53.0549  95.1184 0001125  87.3048 272.8069 15.06391875318340
STARLINK-1234,45190,53.0511,0.0006025,15.42275134,435.2887735270551,443.5039011985773,1 45190U 20012N   25342.46795343  .00082276  00000+0  18716-2 0  9990,2 45190  53.0511  44.3919 0006025 339.3409  20.7351 15.42275134321716
STARLINK-1269,45197,53.0538,0.0001352,15.0640179,546.2697654682033,548.1423782348311,1 45197U 20012V   25342.70463411  .00005988  00000+0  42051-3 0  9997,2 45197  53.0538  95.0665 0001352  96.0891 264.0253 15.06401790321097
STARLINK-1154,45198,53.0564,0.0001189,15.06390557,546.4170721397286,548.0639269091153,1 45198U 20012W   25342.56273147  .00001183  00000+0  98331-4 0  9993,2 45198  53.0564  75.7035 0001189  66.3991 293.7123 15.06390557321321
STARLINK-1199,45201,53.0549,0.0001397,15.06394642,546.2605059976249,548.1954529728928,1 45201U 20012Z   25342.70648649 -.00000564  00000+0 -18969-4 0  9990,2 45201  53.0549  75.0600 0001397  89.0047 271.1102 15.06394642321400
STARLINK-1209,45206,53.0521,0.0006207,15.35671345,454.6833763854038,463.1709078114045,1 45206U 20012AE  25342.68200981  .00049900  00000+0  14188-2 0  9997,2 45206  53.0521  45.6933 0006207 345.5093  14.5730 15.35671345320868
STARLINK-1210,45207,53.0209,0.0003208,15.66539206,366.651227991606,370.9800728121036,1 45207U 20012AF  25342.77777507  .00168734  00000+0  15582-2 0  9997,2 45207  53.0209 359.4248 0003208 148.8585 211.2621 15.66539206322472
STARLINK-1231,45212,53.0509,0.0003726,15.14909555,518.6824442066581,523.8238697516381,1 45212U 20012AL  25342.54116332  .00036064  00000+0  19201-2 0  9993,2 45212  53.0509  72.2271 0003726 150.3984 209.7220 15.14909555321380
STARLINK-1271,45217,53.0573,0.0001452,15.06395336,546.2202897772422,548.2314151495975,1 45217U 20012AR  25342.55904928  .00000589  00000+0  58432-4 0  9999,2 45217  53.0573  75.7201 0001452  89.3186 270.7969 15.06395336321381
STARLINK-1191,45222,53.0542,0.0001229,15.064,546.360432600507,548.062683276049,1 45222U 20012AW  25342.63460347 -.00000624  00000+0 -23006-4 0  9997,2 45222  53.0542  55.3792 0001229 110.4429 249.6692 15.06400000321675
STARLINK-1212,45223,53.0554,0.0001554,15.06399547,546.1367469367233,548.2891457000387,1 45223U 20012AX  25342.65312836  .00003471  00000+0  25183-3 0  9997,2 45223  53.0554  55.9530 0001554  86.7268 273.3898 15.06399547321677
STARLINK-1215,45225,53.0578,0.0001575,15.06381697,546.1769033320543,548.3584057982425,1 45225U 20012AZ  25342.47613462  .00008658  00000+0  59974-3 0  9995,2 45225  53.0578  56.0894 0001575 102.9097 257.2068 15.06381697321604
STARLINK-1221,45227,53.0682,0.0005324,15.38361228,447.319098363424,454.5907154258848,1 45227U 20012BB  25342.28158163  .00019890  00000+0  52690-3 0  9996,2 45227  53.0682 341.5662 0005324  78.1604 281.9996 15.38361228322621
STARLINK-1222,45228,53.0568,8.42e-05,15.11694048,530.4516818531356,531.615186154223,1 45228U 20012BC  25342.80363102  .00140909  00000+0  80395-2 0  9994,2 45228  53.0568  54.2311 0000842  78.0205 282.0881 15.11694048321590
STARLINK-1226,45229,53.0585,0.0001744,15.06402031,545.9975535198746,548.4131129257021,1 45229U 20012BD  25342.47242305  .00003516  00000+0  25484-3 0  9990,2 45229  53.0585  56.1089 0001744  86.7181 273.4007 15.06402031321546
STARLINK-1227,45230,53.0547,0.0001434,15.06389096,546.251877553852,548.2380771049502,1 45230U 20012BE  25342.46874639  .00000239  00000+0  34971-4 0  9993,2 45230  53.0547  56.1238 0001434  96.0290 264.0862 15.06389096321666
STARLINK-1246,45235,53.055,0.0001054,15.06402281,546.4746360094596,547.9344980117858,1 45235U 20012BK  25342.61618544  .00004095  00000+0  29365-3 0  9990,2 45235  53.0550  95.4621 0001054  85.1475 274.9634 15.06402281321130
STARLINK-1270,45237,53.0554,0.0001354,15.06392472,546.2969349513924,548.1723255888692,1 45237U 20012BM  25342.61986912  .00000108  00000+0  26163-4 0  9994,2 45237  53.0554  55.4458 0001354 101.6879 258.4262 15.06392472321678
STARLINK-1279,45360,53.05,0.0009348,15.39967039,439.8272972502109,452.5860902200184,1 45360U 20019A   25342.81117462  .00065320  00000+0  16083-2 0  9991,2 45360  53.0500 173.6863 0009348 134.0596 226.1179 15.39967039316593
STARLINK-1301,45361,53.0493,0.0008997,15.42848954,431.5736234410342,443.8380510423667,1 45361U 20019B   25342.83843412  .00053740  00000+0  12060-2 0  9999,2 45361  53.0493 182.5614 0008997 129.1573 231.0233 15.42848954316489
STARLINK-1306,45362,53.0384,0.0002588,15.85686836,312.65944530150045,316.1234980384361,1 45362U 20019C   25342.91670139  .00345929  00000+0  13446-2 0  9995,2 45362  53.0384 161.9369 0002588  81.2095 215.6133 15.85686836  6012
STARLINK-1262,45366,53.0533,0.0001395,15.06405218,546.2294816730746,548.1616494588661,1 45366U 20019G   25342.79679133 -.00003422  00000+0 -21088-3 0  9991,2 45366  53.0533 214.6500 0001395  88.7689 271.3460 15.06405218316035
STARLINK-1273,45367,53.0524,0.0001428,15.06394095,546.2407136134489,548.2185983303953,1 45367U 20019H   25342.81890667  .00000131  00000+0  27691-4 0  9991,2 45367  53.0524 214.5453 0001428  87.1720 272.9432 15.06394095316034
STARLINK-1276,45368,53.0549,0.0001279,15.06393668,546.3452101116,548.116719236964,1 45368U 20019J   25342.85577553  .00000647  00000+0  62324-4 0  9996,2 45368  53.0549 214.3899 0001279  88.7018 271.4117 15.06393668316045
STARLINK-1277,45369,53.0523,0.0001397,15.06390489,546.2732326710147,548.2081832026124,1 45369U 20019K   25342.84847628 -.00000226  00000+0  37189-5 0  9995,2 45369  53.0523 215.0455 0001397  87.5041 272.6108 15.06390489316038
STARLINK-1281,45370,53.0528,0.0001504,15.0639508,546.1850623796936,548.2682117617251,1 45370U 20019L   25342.84471066  .00001901  00000+0  14652-3 0  9994,2 45370  53.0528 214.4392 0001504  92.8407 267.2754 15.06395080316043
STARLINK-1300,45374,53.0537,0.0002075,15.0640235,545.7673472048291,548.6413638673766,1 45374U 20019Q   25342.80048242  .00002278  00000+0  17176-3 0  9992,2 45374  53.0537 214.6328 0002075 109.3546 250.7667 15.06402350316038
STARLINK-1302,45375,53.0532,0.0001007,15.06386283,546.5562120533741,547.9509857199901,1 45375U 20019R   25342.81523289  .00001336  00000+0  10858-3 0  9997,2 45375  53.0532 214.5692 0001007  99.4475 260.6628 15.06386283316034
STARLINK-1304,45376,53.0522,0.000127,15.06381608,546.3884009170952,548.1474537686399,1 45376U 20019S   25342.83365436  .00007478  00000+0  52065-3 0  9997,2 45376  53.0522 214.4844 0001270 104.3759 255.7371 15.06381608316031
STARLINK-1305,45377,53.0516,0.0008431,15.36522455,450.63991951202024,462.1643193752252,1 45377U 20019T   25342.80332769  .00068525  00000+0  18864-2 0  9996,2 45377  53.0516 204.8959 0008431 123.0182 237.1631 15.36522455316177
STARLINK-1319,45379,53.0515,0.0007274,15.41432076,436.92104559292784,446.84280912845225,1 45379U 20019V   25342.83732860  .00087298  00000+0  20400-2 0  9994,2 45379  53.0515 205.8731 0007274 127.7914 232.3750 15.41432076316168
STARLINK-1266,45383,53.0543,0.0001471,15.06405469,546.1760799844351,548.2135125989034,1 45383U 20019Z   25342.85391544  .00002336  00000+0  17566-3 0  9991,2 45383  53.0543 194.3981 0001471  96.4116 263.7041 15.06405469316317
STARLINK-1267,45384,53.0553,0.0001623,15.06395623,546.1009865971628,548.3489590935478,1 45384U 20019AA  25342.83925883  .00000107  00000+0  26110-4 0  9999,2 45384  53.0553 195.1224 0001623  87.6125 272.5050 15.06395623316306
STARLINK-1272,45386,53.0505,0.0009056,15.39559834,441.2287592833427,453.5911899637813,1 45386U 20019AC  25342.86535639  .00070702  00000+0  17624-2 0  9996,2 45386  53.0505 183.9982 0009056 134.3969 225.7777 15.39559834316460
STARLINK-1274,45387,53.0324,0.0005416,15.33446407,461.8324533240102,469.2455231544718,1 45387U 20019AD  25342.83581420  .00071710  00000+0  21770-2 0  9990,2 45387  53.0324 172.9474 0005416  99.0671 261.0943 15.33446407316617
